NUSAT-1 (FRESCO)        
1 41557U 16033B   22241.24051649  .00006863  00000+0  19693-3 0  9990
2 41557  97.3905 339.1440 0011626 114.5931 329.5548 15.36126839348556
BEESAT-4                
1 41619U 16040W   22240.68366737  .00010002  00000+0  31832-3 0  9990
2 41619  97.2105 289.4429 0008450 206.5645 153.5166 15.32738920331789
CAS-2T & KS-1Q          
1 41847U 16066G   22240.81398133  .00000301  00000+0  55461-4 0  9997
2 41847  98.5456 305.3871 0363273 353.6100   6.0518 14.38702791304753
NAYIF-1 (EO-88)         
1 42017U 17008BX  22240.17851576  .00011593  00000+0  32717-3 0  9991
2 42017  97.2634 305.3280 0004183   9.0198 351.1121 15.36532478308088
ZHUHAI-1 02 (CAS-4B)    
1 42759U 17034B   22241.16517638  .00001301  00000+0  86580-4 0  9995
2 42759  43.0190 291.7855 0009165  18.3766  31.7186 15.12317558287365
ZHUHAI-1 01 (CAS-4A)    
1 42761U 17034D   22241.26024456  .00001410  00000+0  92564-4 0  9990
2 42761  43.0184 289.9951 0009680  20.8245  15.2649 15.12403289287389
MAX VALIER SAT          
1 42778U 17036P   22241.10413407  .00006033  00000+0  22344-3 0  9995
2 42778  97.1995 279.7342 0012343  72.9183 287.3408 15.27939399287991
RADFXSAT (FOX-1B)       
1 43017U 17073E   22241.24165450  .00002430  00000+0  18637-3 0  9997
2 43017  97.6645 132.4442 0245897 309.6740  48.3013 14.81876878257896
FOX-1D (AO-92)          
1 43137U 18004AC  22240.82377762  .00007374  00000+0  25228-3 0  9995
2 43137  97.3646 315.3702 0009113 104.5035 255.7217 15.30507328257410
DIWATA-2B               
1 43678U 18084H   22241.27162173  .00000573  00000+0  61920-4 0  9995
2 43678  97.9801  15.4333 0010886  50.9551 309.2665 14.92269455208717
ES'HAIL 2               
1 43700U 18090A   22240.83400435  .00000143  00000+0  00000+0 0  9995
2 43700   0.0251 144.3670 0001943  49.6825 108.9919  1.00269786 13752
FOX-1CLIFF (AO-95)      
1 43770U 18099N   22240.69606749  .00001269  00000+0  11586-3 0  9996
2 43770  97.6147 305.1624 0014750  36.5862 125.2645 14.96710003203815
ITASAT 1                
1 43786U 18099AE  22241.18801623  .00001304  00000+0  11857-3 0  9997
2 43786  97.6180 306.5994 0015191  30.1870 330.0224 14.96819027203931
JY1SAT (JO-97)          
1 43803U 18099AX  22241.18020355  .00001411  00000+0  12617-3 0  9996
2 43803  97.6139 306.3698 0014885  28.4112 331.7919 14.97375423203951
UWE-4                   
1 43880U 18111E   22241.26088298  .00001273  00000+0  11132-3 0  9992
2 43880  97.6598 146.2936 0012764  76.7246 283.5399 14.98458764198601
NEXUS (FO-99)           
1 43937U 19003F   22240.63198315  .00008403  00000+0  27200-3 0  9993
2 43937  97.1257 271.2287 0017912 252.8143 107.1139 15.32122696201027
PSAT2 (NO-104)          
1 44354U 19036R   22240.50110338  .00054226 -53379-5  42337-3 0  9994
2 44354  28.5236  36.2194 0207871  67.2409 295.0016 15.46439213175819
JAISAT-1                
1 44419U 19038F   22240.89029588  .00005254  00000+0  25916-3 0  9993
2 44419  97.6418 211.6679 0017081 237.3944 122.5641 15.18239689174049
DUCHIFAT-3              
1 44854U 19089C   22241.13551508  .00001622  00000+0  12927-3 0  9995
2 44854  36.9677  29.3252 0006945  84.5929 275.5633 15.01451135148863
CAS-6 (TIANQIN 1)       
1 44881U 19093C   22241.17150612  .00000183  00000+0  29911-4 0  9998
2 44881  97.8906 319.3305 0013921 313.8128  46.1942 14.81793046145540
RS-44 & BREEZE-KM R/B   
1 44909U 19096E   22241.36987977  .00000027  00000+0  55889-4 0  9995
2 44909  82.5244 181.8383 0217857 148.9831 212.4348 12.79714427124880
ORBITAL FACTORY 2 (OF-2)
1 45113U 19071C   22240.71804848  .00022062  00000+0  41280-3 0  9991
2 45113  51.6366  62.9454 0008759  82.3559 277.8424 15.48595274144568
HUSKYSAT-1 (HO-107)     
1 45119U 19071J   22241.09912232  .00019758  00000+0  38804-3 0  9992
2 45119  51.6369  61.7091 0008723  79.1899 281.0070 15.47272415144600
BY70-2                  
1 45857U 20042B   22241.16407346  .00002670  00000+0  35531-3 0  9993
2 45857  97.9541 317.3398 0009302 234.1966 125.8399 14.80510793116211
SALSAT                  
1 46495U 20068K   22240.78427029  .00001909  00000+0  13954-3 0  9996
2 46495  97.7323 182.1296 0017303  37.0028 323.2387 15.04756136105062
BY70-3                  
1 46839U 20079N   22241.25210021  .00014004  00000+0  30202-3 0  9990
2 46839  97.1939 312.5088 0006284  74.3205  12.2073 15.44656516101479
RADFXSAT-2 (AO-109)     
1 47311U 21002C   22240.88108461  .00005565  00000+0  22152-3 0  9992
2 47311  60.6839  89.4000 0029102  28.2646 332.0014 15.26237451 89515
UVSQ-SAT                
1 47438U 21006AB  22241.14760058  .00003355  00000+0  17602-3 0  9991
2 47438  97.4311 298.6757 0012266  30.5826 329.6120 15.16366371 88297
DIY-1 (ARDUIQUBE)       
1 47963U 21022AH  22240.69752140  .00009924  00000+0  52945-3 0  9991
2 47963  97.5236 141.2859 0014102 239.5268 120.4571 15.15270299 77887
XW-3 (CAS-9)            
1 50466U 21131B   22241.20632818  .00000017  00000+0  20172-4 0  9993
2 50466  98.5776 318.4162 0003330 296.3348  63.7497 14.38517034 35374
TEVEL-3                 
1 50988U 22002E   22241.15351718  .00003047  00000+0  16575-3 0  9998
2 50988  97.4771 306.9407 0010062 163.5322 248.5453 15.15170235 34421
TEVEL-8                 
1 50989U 22002F   22241.29584624  .00003195  00000+0  17391-3 0  9999
2 50989  97.4783 307.1063 0010295 162.0683 264.3315 15.15119341 34444
TEVEL-5                 
1 50998U 22002Q   22241.15219678  .00003119  00000+0  16719-3 0  9997
2 50998  97.4762 307.0739 0011653 160.5315 257.3831 15.15663245 34435
TEVEL-6                 
1 50999U 22002R   22241.15196948  .00003110  00000+0  16673-3 0  9992
2 50999  97.4763 307.0728 0011587 160.1835 259.5048 15.15667740 34432
TEVEL-1                 
1 51013U 22002AF  22241.15696730  .00003127  00000+0  17017-3 0  9995
2 51013  97.4767 306.9216 0009951 163.9187 248.4395 15.15144858 34428
TEVEL-7                 
1 51062U 22002CG  22241.16301147  .00003243  00000+0  17650-3 0  9997
2 51062  97.4779 306.9608 0010125 162.0509 250.7872 15.15110644 34425
TEVEL-4                 
1 51063U 22002CH  22241.16381532  .00003261  00000+0  17749-3 0  9993
2 51063  97.4777 306.9586 0010212 162.2391 250.2098 15.15101378 34426
TEVEL-2                 
1 51069U 22002CP  22241.15491413  .00003091  00000+0  16814-3 0  9991
2 51069  97.4766 306.9272 0010130 163.6180 248.6523 15.15163259 34422
YUZGU 9 (RS3S)          
1 53308U 98067TT  22241.13692415  .00027443  00000+0  44494-3 0  9998
2 53308  51.6425 334.8481 0001205 146.1910 213.9157 15.52552433  6048
YUZGU 7 (RS1S)          
1 53309U 98067TU  22241.13587234  .00028186  00000+0  45565-3 0  9996
2 53309  51.6423 334.8399 0001581 181.8137 178.2848 15.52618885  5996
YUZGU 11 (RS5S)         
1 53310U 98067TV  22241.13649150  .00027423  00000+0  44482-3 0  9994
2 53310  51.6426 334.8459 0001334 183.7843 176.3137 15.52539962  6022
TSIOLKOVSKY-RYAZAN 1 (*)
1 53311U 98067TW  22241.13361242  .00028904  00000+0  46478-3 0  9990
2 53311  51.6422 334.8247 0001095 121.7143 238.3954 15.52753800  6040
YUZGU TX (RS9S)         
1 53312U 98067TX  22241.19892484  .00028678  00000+0  46244-3 0  9993
2 53312  51.6426 334.5113 0001738 187.1812 172.9153 15.52679885  5994
YUZGU TY (RS12S)        
1 53313U 98067TY  22241.13347261  .00028796  00000+0  46371-3 0  9998
2 53313  51.6426 334.8249 0001326 199.0592 161.0348 15.52715972  6037
YUZGU 10 (RS4S)         
1 53321U 98067TZ  22241.13741073  .00028400  00000+0  46021-3 0  9990
2 53321  51.6428 334.8527 0001188 161.1441 198.9593 15.52548831  6035
RS29S (SXC3-2110 CYCLO*)
1 53373U 22096D   22241.54254721  .00004009  00000+0  16539-3 0  9990
2 53373  97.4359 142.8586 0003629  98.6430  24.1860 15.24626481  3085
RS32S (SXC3-212 MONITO*)
1 53374U 22096E   22241.46303207  .00004095  00000+0  16833-3 0  9998
2 53374  97.4349 142.7824 0003733  94.8428 319.4701 15.24733006  3075
RS34S (SXC3-218 KUZBAS*)
1 53375U 22096F   22241.27925549  .00003633  00000+0  14969-3 0  9992
2 53375  97.4346 142.6014 0003647  92.3432  34.8857 15.24731230  3049
RS23S (SXC3-21 UTMN)    
1 53376U 22096G   22241.21965292  .00003537  00000+0  14562-3 0  9998
2 53376  97.4356 142.5423 0003777  90.9252  71.9988 15.24771161  3035
RS28S (SXC3-214 MIET-A*)
1 53377U 22096H   22241.40702473  .00003511  00000+0  14447-3 0  9994
2 53377  97.4356 142.7290 0003667  91.2638  21.5632 15.24797769  3062
RS26S (KAI-1)           
1 53378U 22096J   22241.46734731  .00003063  00000+0  12630-3 0  9997
2 53378  97.4352 142.7908 0003665  86.8357 359.4513 15.24822862  3076
RS19S (SXC3-219 ISOI)   
1 53381U 22096M   22241.46655927  .00003698  00000+0  15002-3 0  9990
2 53381  97.4350 142.8037 0005375  40.3914  70.9375 15.25238621  3072
RS21S (CUBESX-HSE-2)    
1 53383U 22096P   22241.40014234  .00003391  00000+0  13756-3 0  9990
2 53383  97.4351 142.7385 0005499  40.3140  71.0378 15.25297343  3068
RS30S (SXC3-217 SIREN)  
1 53384U 22096Q   22241.21029767  .00003103  00000+0  12606-3 0  9991
2 53384  97.4352 142.5507 0005453  41.9909 109.1302 15.25313634  3033
RS20S (GEOSCAN-EDELVEIS)
1 53385U 22096R   22241.39779065  .00004367  00000+0  17529-3 0  9996
2 53385  97.4346 142.7414 0005989  38.1977  73.0016 15.25492938  3095
RS33S (SXC3-215 VIZARD) 
1 53386U 22096S   22241.52845200  .00005266  00000+0  20917-3 0  9991
2 53386  97.4339 142.8772 0006786  37.1500  87.2202 15.25738591  3107
